[{"OBJECT_NAME":"STARLINK-1626","OBJECT_ID":"2020-057BC","EPOCH":"2026-03-09T21:10:18.495264","MEAN_MOTION":15.54470029,"ECCENTRICITY":0.00074735,"INCLINATION":53.0494,"RA_OF_ASC_NODE":293.3535,"ARG_OF_PERICENTER":135.7142,"MEAN_ANOMALY":224.4467,"EPHEMERIS_TYPE":0,"CLASSIFICATION_TYPE":"U","NORAD_CAT_ID":46167,"ELEMENT_SET_NO":999,"REV_AT_EPOCH":30641,"BSTAR":0.001933485,"MEAN_MOTION_DOT":0.00131235,"MEAN_MOTION_DDOT":0},{"OBJECT_NAME":"RISAT-1","OBJECT_ID":"2012-017A","EPOCH":"2026-03-09T15:46:35.917824","MEAN_MOTION":15.57540889,"ECCENTRICITY":0.00036553,"INCLINATION":97.4526,"RA_OF_ASC_NODE":111.2793,"ARG_OF_PERICENTER":120.4125,"MEAN_ANOMALY":239.7492,"EPHEMERIS_TYPE":0,"CLASSIFICATION_TYPE":"U","NORAD_CAT_ID":38248,"ELEMENT_SET_NO":999,"REV_AT_EPOCH":76654,"BSTAR":0.00057862744,"MEAN_MOTION_DOT":0.00042667,"MEAN_MOTION_DDOT":0}]
